{
  "type": "FeatureCollection",
  "features": [
    {
      "type": "Feature",
      "properties": {
        "norad_id": 66676,
        "name": "TRANSPORTER-15L",
        "group": "last-30-days",
        "lat": 51.933177903694684,
        "lon": 62.36507520870865,
        "alt_km": 513.4395215518853,
        "timestamp": "2025-12-26T11:25:43.984709+00:00",
        "meta_object_name": "TRANSPORTER-15L",
        "meta_object_id": "2025-276L",
        "meta_epoch": "2025-12-26T03:16:52.258080",
        "meta_mean_motion": 15.16764466,
        "meta_eccentricity": 0.0004029,
        "meta_inclination": 97.4385,
        "meta_ra_of_asc_node": 71.6353,
        "meta_arg_of_pericenter": 257.4134,
        "meta_mean_anomaly": 102.6648,
        "meta_ephemeris_type": 0,
        "meta_classification_type": "U",
        "meta_norad_cat_id": 66676,
        "meta_element_set_no": 999,
        "meta_rev_at_epoch": 415,
        "meta_bstar": -0.0012767,
        "meta_mean_motion_dot": -0.00025023,
        "meta_mean_motion_ddot": 0,
        "tle_line1": "1 66676U 25276L   25360.13671595 -.00025023  00000+0 -12767-2 0  9994",
        "tle_line2": "2 66676  97.4385  71.6353 0004029 257.4134 102.6648 15.16764466  4158"
      },
      "geometry": {
        "type": "Point",
        "coordinates": [
          62.36507520870865,
          51.933177903694684
        ]
      }
    },
    {
      "type": "Feature",
      "properties": {
        "norad_id": 66677,
        "name": "TRANSPORTER-15M",
        "group": "last-30-days",
        "lat": 73.58555733456261,
        "lon": -81.69037801738932,
        "alt_km": 508.24482457342583,
        "timestamp": "2025-12-26T11:25:43.984718+00:00",
        "meta_object_name": "TRANSPORTER-15M",
        "meta_object_id": "2025-276M",
        "meta_epoch": "2025-12-26T03:03:24.399072",
        "meta_mean_motion": 15.17575934,
        "meta_eccentricity": 0.0003872,
        "meta_inclination": 97.4378,
        "meta_ra_of_asc_node": 71.6421,
        "meta_arg_of_pericenter": 248.807,
        "meta_mean_anomaly": 111.275,
        "meta_ephemeris_type": 0,
        "meta_classification_type": "U",
        "meta_norad_cat_id": 66677,
        "meta_element_set_no": 999,
        "meta_rev_at_epoch": 415,
        "meta_bstar": 0.00069907,
        "meta_mean_motion_dot": 0.00013994,
        "meta_mean_motion_ddot": 0,
        "tle_line1": "1 66677U 25276M   25360.12736573  .00013994  00000+0  69907-3 0  9993",
        "tle_line2": "2 66677  97.4378  71.6421 0003872 248.8070 111.2750 15.17575934  4156"
      },
      "geometry": {
        "type": "Point",
        "coordinates": [
          -81.69037801738932,
          73.58555733456261
        ]
      }
    },
    {
      "type": "Feature",
      "properties": {
        "norad_id": 66678,
        "name": "TRANSPORTER-15N",
        "group": "last-30-days",
        "lat": 56.77270621204946,
        "lon": 60.45580024883014,
        "alt_km": 505.49156479798876,
        "timestamp": "2025-12-26T11:25:43.984727+00:00",
        "meta_object_name": "TRANSPORTER-15N",
        "meta_object_id": "2025-276N",
        "meta_epoch": "2025-12-26T03:15:39.841920",
        "meta_mean_motion": 15.16985461,
        "meta_eccentricity": 0.0006456,
        "meta_inclination": 97.4382,
        "meta_ra_of_asc_node": 71.6261,
        "meta_arg_of_pericenter": 34.1912,
        "meta_mean_anomaly": 325.9736,
        "meta_ephemeris_type": 0,
        "meta_classification_type": "U",
        "meta_norad_cat_id": 66678,
        "meta_element_set_no": 999,
        "meta_rev_at_epoch": 415,
        "meta_bstar": 0.0003171,
        "meta_mean_motion_dot": 6.2e-05,
        "meta_mean_motion_ddot": 0,
        "tle_line1": "1 66678U 25276N   25360.13587780  .00006200  00000+0  31710-3 0  9992",
        "tle_line2": "2 66678  97.4382  71.6261 0006456  34.1912 325.9736 15.16985461  4153"
      },
      "geometry": {
        "type": "Point",
        "coordinates": [
          60.45580024883014,
          56.77270621204946
        ]
      }
    },
    {
      "type": "Feature",
      "properties": {
        "norad_id": 66679,
        "name": "TRANSPORTER-15P",
        "group": "last-30-days",
        "lat": 47.33196935017528,
        "lon": 63.8099659275237,
        "alt_km": 514.7910913528585,
        "timestamp": "2025-12-26T11:25:43.984736+00:00",
        "meta_object_name": "TRANSPORTER-15P",
        "meta_object_id": "2025-276P",
        "meta_epoch": "2025-12-26T00:08:05.421984",
        "meta_mean_motion": 15.16718698,
        "meta_eccentricity": 0.0004744,
        "meta_inclination": 97.4359,
        "meta_ra_of_asc_node": 71.4944,
        "meta_arg_of_pericenter": 243.3659,
        "meta_mean_anomaly": 116.7089,
        "meta_ephemeris_type": 0,
        "meta_classification_type": "U",
        "meta_norad_cat_id": 66679,
        "meta_element_set_no": 999,
        "meta_rev_at_epoch": 413,
        "meta_bstar": 0.00021025,
        "meta_mean_motion_dot": 4.056e-05,
        "meta_mean_motion_ddot": 0,
        "tle_line1": "1 66679U 25276P   25360.00561831  .00004056  00000+0  21025-3 0  9993",
        "tle_line2": "2 66679  97.4359  71.4944 0004744 243.3659 116.7089 15.16718698  4135"
      },
      "geometry": {
        "type": "Point",
        "coordinates": [
          63.8099659275237,
          47.33196935017528
        ]
      }
    },
    {
      "type": "Feature",
      "properties": {
        "norad_id": 66680,
        "name": "TRANSPORTER-15Q",
        "group": "last-30-days",
        "lat": 56.99243548921148,
        "lon": 60.36941211632912,
        "alt_km": 513.1249408256162,
        "timestamp": "2025-12-26T11:25:43.984746+00:00",
        "meta_object_name": "TRANSPORTER-15Q",
        "meta_object_id": "2025-276Q",
        "meta_epoch": "2025-12-25T05:05:38.818176",
        "meta_mean_motion": 15.16866532,
        "meta_eccentricity": 0.000484,
        "meta_inclination": 97.4407,
        "meta_ra_of_asc_node": 70.7353,
        "meta_arg_of_pericenter": 236.3987,
        "meta_mean_anomaly": 123.6784,
        "meta_ephemeris_type": 0,
        "meta_classification_type": "U",
        "meta_norad_cat_id": 66680,
        "meta_element_set_no": 999,
        "meta_rev_at_epoch": 401,
        "meta_bstar": 0.00055928,
        "meta_mean_motion_dot": 0.00010954,
        "meta_mean_motion_ddot": 0,
        "tle_line1": "1 66680U 25276Q   25359.21225484  .00010954  00000+0  55928-3 0  9990",
        "tle_line2": "2 66680  97.4407  70.7353 0004840 236.3987 123.6784 15.16866532  4017"
      },
      "geometry": {
        "type": "Point",
        "coordinates": [
          60.36941211632912,
          56.99243548921148
        ]
      }
    },
    {
      "type": "Feature",
      "properties": {
        "norad_id": 66681,
        "name": "TRANSPORTER-15R",
        "group": "last-30-days",
        "lat": 81.62897785552639,
        "lon": -45.51026257673471,
        "alt_km": 509.0015772749648,
        "timestamp": "2025-12-26T11:25:43.984756+00:00",
        "meta_object_name": "TRANSPORTER-15R",
        "meta_object_id": "2025-276R",
        "meta_epoch": "2025-12-26T03:06:15.048576",
        "meta_mean_motion": 15.17562577,
        "meta_eccentricity": 0.0004877,
        "meta_inclination": 97.433,
        "meta_ra_of_asc_node": 71.6241,
        "meta_arg_of_pericenter": 261.2436,
        "meta_mean_anomaly": 98.8245,
        "meta_ephemeris_type": 0,
        "meta_classification_type": "U",
        "meta_norad_cat_id": 66681,
        "meta_element_set_no": 999,
        "meta_rev_at_epoch": 415,
        "meta_bstar": 0.00085327,
        "meta_mean_motion_dot": 0.00017098,
        "meta_mean_motion_ddot": 0,
        "tle_line1": "1 66681U 25276R   25360.12934084  .00017098  00000+0  85327-3 0  9998",
        "tle_line2": "2 66681  97.4330  71.6241 0004877 261.2436  98.8245 15.17562577  4158"
      },
      "geometry": {
        "type": "Point",
        "coordinates": [
          -45.51026257673471,
          81.62897785552639
        ]
      }
    },
    {
      "type": "Feature",
      "properties": {
        "norad_id": 66682,
        "name": "TRANSPORTER-15S",
        "group": "last-30-days",
        "lat": 58.60509236702596,
        "lon": 59.61856250801222,
        "alt_km": 520.200943222163,
        "timestamp": "2025-12-26T11:25:43.984765+00:00",
        "meta_object_name": "TRANSPORTER-15S",
        "meta_object_id": "2025-276S",
        "meta_epoch": "2025-12-26T03:14:15.689184",
        "meta_mean_motion": 15.14283917,
        "meta_eccentricity": 0.0019415,
        "meta_inclination": 97.4452,
        "meta_ra_of_asc_node": 71.6579,
        "meta_arg_of_pericenter": 164.6738,
        "meta_mean_anomaly": 195.5086,
        "meta_ephemeris_type": 0,
        "meta_classification_type": "U",
        "meta_norad_cat_id": 66682,
        "meta_element_set_no": 999,
        "meta_rev_at_epoch": 415,
        "meta_bstar": 0.015165,
        "meta_mean_motion_dot": 0.00289588,
        "meta_mean_motion_ddot": 0,
        "tle_line1": "1 66682U 25276S   25360.13490381  .00289588  00000+0  15165-1 0  9993",
        "tle_line2": "2 66682  97.4452  71.6579 0019415 164.6738 195.5086 15.14283917  4156"
      },
      "geometry": {
        "type": "Point",
        "coordinates": [
          59.61856250801222,
          58.60509236702596
        ]
      }
    }
  ]
}